QIANFAN-49              
1 62250U 24232P   25288.62555815  .00000164  00000+0  23533-3 0  9999
2 62250  89.0023  47.0861 0013971  10.4970 349.6470 13.50979014 59991
QIANFAN-50              
1 62251U 24232Q   25288.57619147  .00000162  00000+0  23289-3 0  9999
2 62251  89.0027  47.0960 0015666  11.1809 348.9687 13.50979498 60011
QIANFAN-51              
1 62252U 24232R   25288.63380194  .00000148  00000+0  21015-3 0  9993
2 62252  89.0023  47.0876 0013295  15.9866 344.1702 13.50976370 60017
QIANFAN-52              
1 62253U 24232S   25288.58849404  .00000135  00000+0  19073-3 0  9999
2 62253  89.0018  46.9680 0015046   7.3103 352.8265 13.50978846 60096
QIANFAN-53              
1 62254U 24232T   25288.56800898  .00000129  00000+0  18061-3 0  9991
2 62254  89.0026  47.0703 0013974   8.9843 351.1556 13.50974562 60052
QIANFAN-54              
1 62255U 24232U   25288.60910586  .00000149  00000+0  21150-3 0  9998
2 62255  89.0018  46.7496 0003389  71.0148 289.1370 13.50976759 91561
QIANFAN-55              
1 62785U 25016A   25288.63518162  .00000081  00000+0  10692-3 0  9998
2 62785  88.9740 109.2118 0018064 151.4430 208.7715 13.50967641 39346
QIANFAN-56              
1 62786U 25016B   25288.57758166  .00000092  00000+0  12401-3 0  9994
2 62786  88.9713 109.0699 0016646 153.4889 206.7117 13.50975915 39384
